[{"OBJECT_NAME":"STARLINK-31741","OBJECT_ID":"2024-074S","EPOCH":"2026-03-09T03:19:28.512480","MEAN_MOTION":15.27586163,"ECCENTRICITY":0.00017149,"INCLINATION":43.0023,"RA_OF_ASC_NODE":346.3262,"ARG_OF_PERICENTER":275.1195,"MEAN_ANOMALY":84.9461,"EPHEMERIS_TYPE":0,"CLASSIFICATION_TYPE":"U","NORAD_CAT_ID":59550,"ELEMENT_SET_NO":999,"REV_AT_EPOCH":10593,"BSTAR":0.00012593429,"MEAN_MOTION_DOT":3.205e-5,"MEAN_MOTION_DDOT":0},{"OBJECT_NAME":"OBJECT BE","OBJECT_ID":"2025-313BE","EPOCH":"2026-03-09T16:43:59.380320","MEAN_MOTION":15.29801687,"ECCENTRICITY":0.00072083,"INCLINATION":97.3989,"RA_OF_ASC_NODE":145.3568,"ARG_OF_PERICENTER":335.3714,"MEAN_ANOMALY":24.7181,"EPHEMERIS_TYPE":0,"CLASSIFICATION_TYPE":"U","NORAD_CAT_ID":67482,"ELEMENT_SET_NO":999,"REV_AT_EPOCH":797,"BSTAR":0.0026504328,"MEAN_MOTION_DOT":0.00077178,"MEAN_MOTION_DDOT":0}]
